[{"OBJECT_NAME":"ORBCOMM FM32","OBJECT_ID":"1999-065C","EPOCH":"2026-03-09T01:02:29.080032","MEAN_MOTION":14.3696516,"ECCENTRICITY":0.00057226,"INCLINATION":45.0154,"RA_OF_ASC_NODE":287.2018,"ARG_OF_PERICENTER":281.4865,"MEAN_ANOMALY":78.534,"EPHEMERIS_TYPE":0,"CLASSIFICATION_TYPE":"U","NORAD_CAT_ID":25982,"ELEMENT_SET_NO":999,"REV_AT_EPOCH":37268,"BSTAR":0.00040930249,"MEAN_MOTION_DOT":1.082e-5,"MEAN_MOTION_DDOT":0},{"OBJECT_NAME":"FENGYUN 1C DEB","OBJECT_ID":"1999-025AFG","EPOCH":"2026-03-09T20:49:13.873152","MEAN_MOTION":14.49249735,"ECCENTRICITY":0.01054248,"INCLINATION":98.8474,"RA_OF_ASC_NODE":29.347,"ARG_OF_PERICENTER":115.1656,"MEAN_ANOMALY":246.0514,"EPHEMERIS_TYPE":0,"CLASSIFICATION_TYPE":"U","NORAD_CAT_ID":30445,"ELEMENT_SET_NO":999,"REV_AT_EPOCH":444,"BSTAR":0.00063069762,"MEAN_MOTION_DOT":2.528e-5,"MEAN_MOTION_DDOT":0}]
